line1,line2,validFromUtcTime
1 00000U 00000E   26001.00000000  .00000000  00000-0  27772-4 0    01,2 00000  88.9606 165.3357 0010084 270.3382  52.0222 13.55287598    03,2026-01-01T00:00:00Z
1 00000U 00000E   26002.00000000  .00000000  00000-0  27772-4 0    02,2 00000  88.9606 165.2299 0010084 267.4275 251.0560 13.55287637    05,2026-01-02T00:00:00Z
